HST                     
1 20580U 90037B   26181.76850240  .00006914  00000+0  21731-3 0  9990
2 20580  28.4735 347.7442 0001486 311.6422  48.4047 15.30905377790659
POLAR                   
1 23802U 96013A   26181.13098335  .00000195  00000+0  00000+0 0  9997
2 23802  79.8705 226.8996 6483378 208.6352  90.6787  1.29846073145029
SWAS                    
1 25560U 98071A   26181.59881216  .00002000  00000+0  13032-3 0  9994
2 25560  69.8937 192.9308 0008525 246.9133 113.1133 15.09685221499297
CXO                     
1 25867U 99040B   26182.60009460  .00000698  00000+0  00000+0 0  9995
2 25867  56.3386 116.3110 7812274 310.0948   0.4515  0.37794011 17375
XMM-NEWTON              
1 25989U 99066A   26181.31376484  .00000075  00000+0  00000+0 0  9997
2 25989  64.4187 282.8185 4670815  64.6474   0.0796  0.50127122 23075
TERRA                   
1 25994U 99068A   26181.79482046  .00000404  00000+0  91177-4 0  9995
2 25994  97.9449 230.8012 0002613 152.6121 333.6122 14.61113696411597
CLUSTER II-FM7 (SAMBA)  
1 26410U 00041A   26181.52661441  .00015728  00000+0  00000+0 0  9996
2 26410 149.8901  53.0517 9069081 270.4354 359.5654  0.44858661 20366
CLUSTER II-FM8 (TANGO)  
1 26464U 00045B   26179.69554141  .00010301  00000+0  00000+0 0  9994
2 26464 150.1134  53.8490 9072079 271.0645   2.4192  0.44420805 20363
ODIN                    
1 26702U 01007A   26181.09336895  .00225491  00000+0  11434-2 0  9993
2 26702  97.3784 222.9075 0006012 133.8248 226.3518 15.80880084391431
TIMED                   
1 26998U 01055B   26181.45596281  .00000972  00000+0  91731-4 0  9995
2 26998  74.0663 208.3016 0001774 317.4958  42.6089 14.95318085332807
CORIOLIS                
1 27640U 03001A   26181.44460005  .00000094  00000+0  64880-4 0  9996
2 27640  98.7127 188.1270 0014160 169.9782 190.1680 14.19948335216108
SORCE                   
1 27651U 03004A   26181.42204679  .00002331  00000+0  17722-3 0  9990
2 27651  39.9886 186.1637 0016780 150.9738 209.1992 15.03771753273893
MOST                    
1 27843U 03031D   26181.44586802  .00000062  00000+0  48451-4 0  9999
2 27843  98.7044 188.9867 0009233 208.3088 151.7588 14.21325107192598
SCISAT 1                
1 27858U 03036A   26181.32633229  .00000615  00000+0  83216-4 0  9995
2 27858  73.9294 145.2371 0008091 215.2537 144.8105 14.81462317233392
SWIFT                   
1 28485U 04047A   26181.79313439  .00054351  00000+0  42813-3 0  9997
2 28485  20.5527  79.8462 0001118 130.2536 229.8008 15.69635686189009
HINODE (SOLAR-B)        
1 29479U 06041A   26181.47101888  .00000709  00000+0  13017-3 0  9997
2 29479  98.0543 197.4276 0016098 243.7599 116.1952 14.68640619 56822
SHIJIAN-6 02A (SJ-6 02A)
1 29505U 06046A   26181.81142785  .00003154  00000+0  16271-3 0  9993
2 29505  97.6351 222.9806 0004760  93.9998 266.1779 15.17091449 74333
SHIJIAN-6 02B (SJ-6 02B)
1 29506U 06046B   26181.87553663  .00000888  00000+0  73405-4 0  9995
2 29506  97.7152 210.8495 0015056  21.5495 338.6359 15.01408295 72794
FGRST (GLAST)           
1 33053U 08029A   26181.19308794  .00002841  00000+0  10039-3 0  9992
2 33053  25.5817 114.1679 0008498 118.6768 241.4625 15.24001866997821
SDO                     
1 36395U 10005A   26181.24558567 -.00000090  00000+0  00000+0 0  9990
2 36395  34.6771  86.1450 0001493  51.4419 126.9147  1.00270579 60198
CRYOSAT 2               
1 36508U 10013A   26181.79660491  .00000103  00000+0  24825-4 0  9995
2 36508  92.0362 280.6099 0002173  96.3351 263.8104 14.51903064860056
X-SAT                   
1 37389U 11015C   26181.91555061 -.00000044  00000+0 -99940-6 0  9994
2 37389  98.3511 158.2852 0013099 306.7426  53.2551 14.25209629789634
GCOM-W1 (SHIZUKU)       
1 38337U 12025A   26181.43336722  .00000461  00000+0  11222-3 0  9993
2 38337  98.2022 121.7886 0001587  68.9254  45.6555 14.57136485750968
NUSTAR                  
1 38358U 12031A   26181.91668980  .00020035  00000+0  11752-2 0  9996
2 38358   6.0280 291.1629 0008759 305.9997  43.7812 15.08927795  1308
NEOSSAT                 
1 39089U 13009D   26181.44993952  .00000138  00000+0  62587-4 0  9998
2 39089  98.4181   1.1675 0010512 201.1175 158.9579 14.35830923698643
BRITE-AUSTRIA           
1 39091U 13009F   26181.44196622  .00000177  00000+0  74807-4 0  9991
2 39091  98.3999   0.5499 0009825 194.0076 166.0839 14.36547215698957
IRIS                    
1 39197U 13033A   26181.49830415  .00000990  00000+0  11946-3 0  9992
2 39197  97.9321  20.7334 0022968 276.0181  83.8417 14.85910636702354
HISAKI (SPRINT-A)       
1 39253U 13049A   26181.38575661  .00000081  00000+0  22820-4 0  9994
2 39253  29.7176 152.9060 0136874 123.8611 237.5067 13.55545707633217
CASSIOPE                
1 39265U 13055A   26181.80219788  .00047061 -32802-6  50846-3 0  9996
2 39265  80.9129  50.1731 0287540  16.6284 344.4134 15.26436132669744
STSAT-3                 
1 39422U 13066G   26181.89575836  .00001429  00000+0  11114-3 0  9991
2 39422  97.6215 151.5633 0009706   3.6731 356.4563 15.02826855686260
SWARM B                 
1 39451U 13067A   26181.75064338  .00003514  00000+0  12503-3 0  9999
2 39451  87.7446 338.1950 0002869  80.0401 280.1172 15.28634144685319
